[{"OBJECT_NAME":"SALSAT","OBJECT_ID":"2020-068K","EPOCH":"2026-03-09T22:26:21.804576","MEAN_MOTION":15.28191989,"ECCENTRICITY":0.00082652,"INCLINATION":97.8859,"RA_OF_ASC_NODE":66.0795,"ARG_OF_PERICENTER":295.8051,"MEAN_ANOMALY":64.2334,"EPHEMERIS_TYPE":0,"CLASSIFICATION_TYPE":"U","NORAD_CAT_ID":46495,"ELEMENT_SET_NO":999,"REV_AT_EPOCH":30019,"BSTAR":0.00040842582,"MEAN_MOTION_DOT":0.00011156,"MEAN_MOTION_DDOT":0},{"OBJECT_NAME":"STARLINK-2221","OBJECT_ID":"2021-041U","EPOCH":"2026-03-09T10:10:16.115232","MEAN_MOTION":15.30211456,"ECCENTRICITY":0.00013188,"INCLINATION":53.1596,"RA_OF_ASC_NODE":140.8205,"ARG_OF_PERICENTER":78.4014,"MEAN_ANOMALY":281.7134,"EPHEMERIS_TYPE":0,"CLASSIFICATION_TYPE":"U","NORAD_CAT_ID":48571,"ELEMENT_SET_NO":999,"REV_AT_EPOCH":26505,"BSTAR":0.00030754127,"MEAN_MOTION_DOT":8.763e-5,"MEAN_MOTION_DDOT":0}]
